start=new Date('2022-03-23T00:00:00.000Z').valueOf();
sats=[{"FILE":"3370190","MEAN_MOTION":"15.06387475","TLE_LINE2":"2 46037  53.0540 145.9835 0001389  71.1627 288.9513 15.06387475 90673","RA_OF_ASC_NODE":"145.9835","PERIOD":"95.593","SEMIMAJOR_AXIS":"6925.387","INCLINATION":"53.0540","ELEMENT_SET_NO":"999","ECCENTRICITY":"0.00013890","OBJECT_NAME":"STARLINK-1565","LAUNCH_DATE":"2020-08-07","BSTAR":"-0.00012811000000","NORAD_CAT_ID":"46037","RCS_SIZE":"LARGE","TIME_SYSTEM":"UTC","EPOCH":"2022-03-22T21:45:39.256704","CENTER_NAME":"EARTH","PERIAPSIS":"546.290","DECAY_DATE":null,"GP_ID":"199426343","SITE":"AFETR","REF_FRAME":"TEME","REV_AT_EPOCH":"9067","OBJECT_ID":"2020-055L","MEAN_MOTION_DOT":"-0.00002188","ARG_OF_PERICENTER":"71.1627","OBJECT_TYPE":"PAYLOAD","MEAN_ANOMALY":"288.9513","MEAN_MOTION_DDOT":"0.0000000000000","CLASSIFICATION_TYPE":"U","TLE_LINE1":"1 46037U 20055L   22081.90670436 -.00002188  00000-0 -12811-3 0  9997","APOAPSIS":"548.214","COUNTRY_CODE":"US","EPHEMERIS_TYPE":"0","MEAN_ELEMENT_THEORY":"SGP4"},{"SEMIMAJOR_AXIS":"6925.359","ELEMENT_SET_NO":"999","INCLINATION":"53.0532","PERIOD":"95.592","OBJECT_NAME":"STARLINK-1567","ECCENTRICITY":"0.00014750","TLE_LINE2":"2 46038  53.0532 147.4043 0001475  69.9210 290.1937 15.06396521 90624","RA_OF_ASC_NODE":"147.4043","FILE":"3369829","MEAN_MOTION":"15.06396521","PERIAPSIS":"546.203","EPOCH":"2022-03-22T14:09:10.412640","CENTER_NAME":"EARTH","LAUNCH_DATE":"2020-08-07","BSTAR":"-0.00000122900000","RCS_SIZE":"LARGE","TIME_SYSTEM":"UTC","NORAD_CAT_ID":"46038","REV_AT_EPOCH":"9062","REF_FRAME":"TEME","OBJECT_ID":"2020-055M","MEAN_MOTION_DOT":"-0.00000300","ARG_OF_PERICENTER":"69.9210","DECAY_DATE":null,"SITE":"AFETR","GP_ID":"199393330","EPHEMERIS_TYPE":"0","COUNTRY_CODE":"US","MEAN_ELEMENT_THEORY":"SGP4","OBJECT_TYPE":"PAYLOAD","APOAPSIS":"548.246","MEAN_ANOMALY":"290.1937","MEAN_MOTION_DDOT":"0.0000000000000","TLE_LINE1":"1 46038U 20055M   22081.58970385 -.00000300  00000-0 -12290-5 0  9995","CLASSIFICATION_TYPE":"U"},{"CENTER_NAME":"EARTH","EPOCH":"2022-03-22T15:55:21.078624","PERIAPSIS":"546.282","NORAD_CAT_ID":"46039","TIME_SYSTEM":"UTC","RCS_SIZE":"LARGE","BSTAR":"-0.00000114480000","LAUNCH_DATE":"2020-08-07","OBJECT_NAME":"STARLINK-1569","ECCENTRICITY":"0.00013940","PERIOD":"95.593","INCLINATION":"53.0548","ELEMENT_SET_NO":"999","SEMIMAJOR_AXIS":"6925.383","MEAN_MOTION":"15.06388843","FILE":"3370190","RA_OF_ASC_NODE":"147.0724","TLE_LINE2":"2 46039  53.0548 147.0724 0001394  61.5947 298.5182 15.06388843 90632","MEAN_ELEMENT_THEORY":"SGP4","COUNTRY_CODE":"US","EPHEMERIS_TYPE":"0","CLASSIFICATION_TYPE":"U","TLE_LINE1":"1 46039U 20055N   22081.66343841 -.00000298  00000-0 -11448-5 0  9996","MEAN_MOTION_DDOT":"0.0000000000000","MEAN_ANOMALY":"298.5182","APOAPSIS":"548.213","OBJECT_TYPE":"PAYLOAD","MEAN_MOTION_DOT":"-0.00000298","ARG_OF_PERICENTER":"61.5947","OBJECT_ID":"2020-055N","REF_FRAME":"TEME","REV_AT_EPOCH":"9063","GP_ID":"199426842","SITE":"AFETR","DECAY_DATE":null},{"APOAPSIS":"548.548","MEAN_MOTION_DDOT":"0.0000000000000","MEAN_ANOMALY":"287.4498","TLE_LINE1":"1 46040U 20055P   22081.89196485 -.00000395  00000-0 -76458-5 0  9993","CLASSIFICATION_TYPE":"U","OBJECT_TYPE":"PAYLOAD","MEAN_ELEMENT_THEORY":"SGP4","EPHEMERIS_TYPE":"0","COUNTRY_CODE":"US","SITE":"AFETR","GP_ID":"199426094","DECAY_DATE":null,"OBJECT_ID":"2020-055P","ARG_OF_PERICENTER":"72.6694","MEAN_MOTION_DOT":"-0.00000395","REV_AT_EPOCH":"9063","REF_FRAME":"TEME","TIME_SYSTEM":"UTC","RCS_SIZE":"LARGE","NORAD_CAT_ID":"46040","LAUNCH_DATE":"2020-08-07","BSTAR":"-0.00000764580000","PERIAPSIS":"545.975","EPOCH":"2022-03-22T21:24:25.763040","CENTER_NAME":"EARTH","TLE_LINE2":"2 46040  53.0531 146.0430 0001858  72.6694 287.4498 15.06384392 90638","RA_OF_ASC_NODE":"146.0430","FILE":"3370190","MEAN_MOTION":"15.06384392","OBJECT_NAME":"STARLINK-1576","ECCENTRICITY":"0.00018580","SEMIMAJOR_AXIS":"6925.396","INCLINATION":"53.0531","ELEMENT_SET_NO":"999","PERIOD":"95.593"},{"OBJECT_TYPE":"PAYLOAD","APOAPSIS":"548.252","TLE_LINE1":"1 46041U 20055Q   22081.56296106 -.00000717  00000-0 -29210-4 0  9990","CLASSIFICATION_TYPE":"U","MEAN_ANOMALY":"293.3239","MEAN_MOTION_DDOT":"0.0000000000000","EPHEMERIS_TYPE":"0","COUNTRY_CODE":"US","MEAN_ELEMENT_THEORY":"SGP4","DECAY_DATE":null,"SITE":"AFETR","GP_ID":"199393575","REV_AT_EPOCH":"9059","REF_FRAME":"TEME","ARG_OF_PERICENTER":"66.7907","MEAN_MOTION_DOT":"-0.00000717","OBJECT_ID":"2020-055Q","BSTAR":"-0.00002921000000","LAUNCH_DATE":"2020-08-07","TIME_SYSTEM":"UTC","RCS_SIZE":"LARGE","NORAD_CAT_ID":"46041","PERIAPSIS":"546.193","CENTER_NAME":"EARTH","EPOCH":"2022-03-22T13:30:39.835584","RA_OF_ASC_NODE":"147.5194","TLE_LINE2":"2 46041  53.0517 147.5194 0001486  66.7907 293.3239 15.06397070 90595","MEAN_MOTION":"15.06397070","FILE":"3369829","INCLINATION":"53.0517","ELEMENT_SET_NO":"999","SEMIMAJOR_AXIS":"6925.358","PERIOD":"95.592","ECCENTRICITY":"0.00014860","OBJECT_NAME":"STARLINK-1580"},{"COUNTRY_CODE":"US","EPHEMERIS_TYPE":"0","MEAN_ELEMENT_THEORY":"SGP4","OBJECT_TYPE":"PAYLOAD","TLE_LINE1":"1 46042U 20055R   22081.54547274 -.00003104  00000-0 -18959-3 0  9994","CLASSIFICATION_TYPE":"U","MEAN_MOTION_DDOT":"0.0000000000000","MEAN_ANOMALY":"297.0762","APOAPSIS":"548.298","REF_FRAME":"TEME","REV_AT_EPOCH":"9011","ARG_OF_PERICENTER":"63.0385","MEAN_MOTION_DOT":"-0.00003104","OBJECT_ID":"2020-055R","DECAY_DATE":null,"GP_ID":"199401587","SITE":"AFETR","CENTER_NAME":"EARTH","EPOCH":"2022-03-22T13:05:28.844736","PERIAPSIS":"546.154","BSTAR":"-0.00018959000000","LAUNCH_DATE":"2020-08-07","NORAD_CAT_ID":"46042","TIME_SYSTEM":"UTC","RCS_SIZE":"LARGE","PERIOD":"95.592","INCLINATION":"53.0519","ELEMENT_SET_NO":"999","SEMIMAJOR_AXIS":"6925.361","OBJECT_NAME":"STARLINK-1581","ECCENTRICITY":"0.00015480","MEAN_MOTION":"15.06396011","FILE":"3369937","RA_OF_ASC_NODE":"147.5957","TLE_LINE2":"2 46042  53.0519 147.5957 0001548  63.0385 297.0762 15.06396011 90118"},{"OBJECT_TYPE":"PAYLOAD","APOAPSIS":"548.215","TLE_LINE1":"1 46043U 20055S   22081.86983239 -.00000502  00000-0 -14785-4 0  9998","CLASSIFICATION_TYPE":"U","MEAN_MOTION_DDOT":"0.0000000000000","MEAN_ANOMALY":"292.1607","EPHEMERIS_TYPE":"0","COUNTRY_CODE":"US","MEAN_ELEMENT_THEORY":"SGP4","DECAY_DATE":null,"SITE":"AFETR","GP_ID":"199427343","REF_FRAME":"TEME","REV_AT_EPOCH":"9066","ARG_OF_PERICENTER":"67.9535","MEAN_MOTION_DOT":"-0.00000502","OBJECT_ID":"2020-055S","BSTAR":"-0.00001478500000","LAUNCH_DATE":"2020-08-07","TIME_SYSTEM":"UTC","RCS_SIZE":"LARGE","NORAD_CAT_ID":"46043","PERIAPSIS":"546.214","CENTER_NAME":"EARTH","EPOCH":"2022-03-22T20:52:33.518496","RA_OF_ASC_NODE":"146.1482","TLE_LINE2":"2 46043  53.0551 146.1482 0001445  67.9535 292.1607 15.06399693 90662","MEAN_MOTION":"15.06399693","FILE":"3370190","INCLINATION":"53.0551","ELEMENT_SET_NO":"999","SEMIMAJOR_AXIS":"6925.349","PERIOD":"95.592","OBJECT_NAME":"STARLINK-1582","ECCENTRICITY":"0.00014450"},{"EPOCH":"2022-03-22T13:16:05.308608","CENTER_NAME":"EARTH","PERIAPSIS":"546.485","NORAD_CAT_ID":"46044","TIME_SYSTEM":"UTC","RCS_SIZE":"LARGE","LAUNCH_DATE":"2020-08-07","BSTAR":"-0.00019663000000","OBJECT_NAME":"STARLINK-1584","ECCENTRICITY":"0.00010990","PERIOD":"95.593","SEMIMAJOR_AXIS":"6925.381","INCLINATION":"53.0526","ELEMENT_SET_NO":"999","FILE":"3369829","MEAN_MOTION":"15.06389433","TLE_LINE2":"2 46044  53.0526 147.5544 0001099  90.8810 269.2305 15.06389433 90622","RA_OF_ASC_NODE":"147.5544","MEAN_ELEMENT_THEORY":"SGP4","COUNTRY_CODE":"US","EPHEMERIS_TYPE":"0","MEAN_MOTION_DDOT":"0.0000000000000","MEAN_ANOMALY":"269.2305","CLASSIFICATION_TYPE":"U","TLE_LINE1":"1 46044U 20055T   22081.55283922 -.00003208  00000-0 -19663-3 0  9992","APOAPSIS":"548.007","OBJECT_TYPE":"PAYLOAD","OBJECT_ID":"2020-055T","MEAN_MOTION_DOT":"-0.00003208","ARG_OF_PERICENTER":"90.8810","REF_FRAME":"TEME","REV_AT_EPOCH":"9062","GP_ID":"199394827","SITE":"AFETR","DECAY_DATE":null},{"EPHEMERIS_TYPE":"0","COUNTRY_CODE":"US","MEAN_ELEMENT_THEORY":"SGP4","OBJECT_TYPE":"PAYLOAD","APOAPSIS":"548.450","TLE_LINE1":"1 46045U 20055U   22081.56390713 -.00001333  00000-0 -70593-4 0  9998","CLASSIFICATION_TYPE":"U","MEAN_MOTION_DDOT":"0.0000000000000","MEAN_ANOMALY":"303.1093","REV_AT_EPOCH":"9060","REF_FRAME":"TEME","MEAN_MOTION_DOT":"-0.00001333","ARG_OF_PERICENTER":"57.0064","OBJECT_ID":"2020-055U","DECAY_DATE":null,"SITE":"AFETR","GP_ID":"199393081","PERIAPSIS":"546.021","CENTER_NAME":"EARTH","EPOCH":"2022-03-22T13:32:01.576032","BSTAR":"-0.00007059300000","LAUNCH_DATE":"2020-08-07","TIME_SYSTEM":"UTC","RCS_SIZE":"LARGE","NORAD_CAT_ID":"46045","INCLINATION":"53.0526","ELEMENT_SET_NO":"999","SEMIMAJOR_AXIS":"6925.371","PERIOD":"95.593","OBJECT_NAME":"STARLINK-1591","ECCENTRICITY":"0.00017540","RA_OF_ASC_NODE":"147.5053","TLE_LINE2":"2 46045  53.0526 147.5053 0001754  57.0064 303.1093 15.06392781 90602","MEAN_MOTION":"15.06392781","FILE":"3369829"},{"REF_FRAME":"TEME","REV_AT_EPOCH":"9161","ARG_OF_PERICENTER":"4.2192","MEAN_MOTION_DOT":"0.00051732","OBJECT_ID":"2020-055V","DECAY_DATE":null,"SITE":"AFETR","GP_ID":"199393331","EPHEMERIS_TYPE":"0","COUNTRY_CODE":"US","MEAN_ELEMENT_THEORY":"SGP4","OBJECT_TYPE":"PAYLOAD","APOAPSIS":"376.385","TLE_LINE1":"1 46046U 20055V   22081.46114563  .00051732  00000-0  53736-3 0  9990","CLASSIFICATION_TYPE":"U","MEAN_MOTION_DDOT":"0.0000000000000","MEAN_ANOMALY":"355.8830","INCLINATION":"53.0531","ELEMENT_SET_NO":"999","SEMIMAJOR_AXIS":"6753.866","PERIOD":"92.064","OBJECT_NAME":"STARLINK-1514","ECCENTRICITY":"0.00009670","RA_OF_ASC_NODE":"74.4161","TLE_LINE2":"2 46046  53.0531  74.4161 0000967   4.2192 355.8830 15.64134381 91617","MEAN_MOTION":"15.64134381","FILE":"3369829","PERIAPSIS":"375.078","CENTER_NAME":"EARTH","EPOCH":"2022-03-22T11:04:02.982432","BSTAR":"0.00053736000000","LAUNCH_DATE":"2020-08-07","TIME_SYSTEM":"UTC","RCS_SIZE":"LARGE","NORAD_CAT_ID":"46046"}];
